NORAD_CAT_ID,OBJECT_NAME,OBJECT_TYPE,EPOCH,MEAN_MOTION,ECCENTRICITY,INCLINATION,RA_OF_ASC_NODE,ARG_OF_PERICENTER,MEAN_ANOMALY,BSTAR,MEAN_MOTION_DOT,MEAN_MOTION_DDOT,TLE_LINE0,TLE_LINE1,TLE_LINE2,SEMIMAJOR_AXIS,PERIOD,APOGEE,PERIGEE,DECAYED
54165.0,STARLINK-5279,PAYLOAD,2023-01-01 21:14:58,15.08846727,0.0001865,53.2186,194.1369,64.7914,295.3272,7.4128e-05,8.92e-06,0.0,0 STARLINK-5279,1 54165U 22141J   23001.88539817  .00000892  00000-0  74128-4 0  9991,2 54165  53.2186 194.1369 0001865  64.7914 295.3272 15.08846727 10179,6917.86,95.437,541.015,538.435,0.0
54165.0,STARLINK-5279,PAYLOAD,2023-01-02 13:08:49,15.0884288,0.0001629999999999,53.2192,191.1613,59.9776,300.1377,-5.751e-05,-1.203e-05,0.0,0 STARLINK-5279,1 54165U 22141J   23002.54779536 -.00001203  00000-0 -57510-4 0  9994,2 54165  53.2192 191.1613 0001630  59.9776 300.1377 15.08842880 10275,6917.871999999999,95.437,540.864,538.609,0.0
54165.0,STARLINK-5279,PAYLOAD,2023-01-02 19:30:22,15.08837217,0.0001665999999999,53.2192,189.9731,59.6816,300.4341,-0.00011988,-2.195e-05,0.0,0 STARLINK-5279,1 54165U 22141J   23002.81275845 -.00002195  00000-0 -11988-3 0  9997,2 54165  53.2192 189.9731 0001666  59.6816 300.4341 15.08837217 10319,6917.889,95.438,540.906,538.601,0.0
54165.0,STARLINK-5279,PAYLOAD,2023-01-02 21:05:45,15.08837341,0.0001771999999999,53.2191,189.6758,63.9832,296.1342,-0.00011836,-2.171e-05,0.0,0 STARLINK-5279,1 54165U 22141J   23002.87899834 -.00002171  00000-0 -11836-3 0  9999,2 54165  53.2191 189.6758 0001772  63.9832 296.1342 15.08837341 10329,6917.889,95.438,540.979,538.528,0.0
54165.0,STARLINK-5279,PAYLOAD,2023-01-03 12:59:37,15.08837187,0.000175,53.2184,186.7021,61.9737,298.1432,-1.5393e-05,-5.33e-06,0.0,0 STARLINK-5279,1 54165U 22141J   23003.54140080 -.00000533  00000-0 -15393-4 0  9999,2 54165  53.2184 186.7021 0001750  61.9737 298.1432 15.08837187 10421,6917.889,95.438,540.965,538.543,0.0
54165.0,STARLINK-5279,PAYLOAD,2023-01-03 20:56:32,15.08838322,0.0001751999999999,53.2182,185.2154,59.3607,300.7557,3.1905e-05,2.2e-06,0.0,0 STARLINK-5279,1 54165U 22141J   23003.87260064  .00000220  00000-0  31905-4 0  9998,2 54165  53.2182 185.2154 0001752  59.3607 300.7557 15.08838322 10474,6917.886,95.438,540.9630000000002,538.539,0.0
54165.0,STARLINK-5279,PAYLOAD,2023-01-04 04:53:28,15.08841289,0.0001813,53.2182,183.7287,61.5261,298.5914,9.6022e-05,1.24e-05,0.0,0 STARLINK-5279,1 54165U 22141J   23004.20380043  .00001240  00000-0  96022-4 0  9990,2 54165  53.2182 183.7287 0001813  61.5261 298.5914 15.08841289 10526,6917.876,95.437,540.996,538.487,0.0
54165.0,STARLINK-5279,PAYLOAD,2023-01-04 20:47:19,15.08846093,0.0001799,53.2181,180.7552,61.2,298.9173,0.00025874,3.833e-05,0.0,0 STARLINK-5279,1 54165U 22141J   23004.86619824  .00003833  00000-0  25874-3 0  9990,2 54165  53.2181 180.7552 0001799  61.2000 298.9173 15.08846093 10628,6917.861999999999,95.437,540.971,538.482,0.0
54165.0,STARLINK-5279,PAYLOAD,2023-01-05 11:05:47,15.08859056,0.0001784,53.2175,178.0791,61.8166,298.3006,0.00041973,6.402e-05,0.0,0 STARLINK-5279,1 54165U 22141J   23005.46235116  .00006402  00000-0  41973-3 0  9998,2 54165  53.2175 178.0791 0001784  61.8166 298.3006 15.08859056 10711,6917.821999999999,95.436,540.9209999999998,538.453,0.0
54165.0,STARLINK-5279,PAYLOAD,2023-01-05 12:41:10,15.08860356,0.0001801,53.2177,177.7819,61.7787,298.3386,0.00042701,6.518e-05,0.0,0 STARLINK-5279,1 54165U 22141J   23005.52859035  .00006518  00000-0  42701-3 0  9995,2 54165  53.2177 177.7819 0001801  61.7787 298.3386 15.08860356 10725,6917.818,95.436,540.929,538.437,0.0
54165.0,STARLINK-5279,PAYLOAD,2023-01-05 17:27:19,15.08852942,0.0001807,53.2176,176.8897,63.0241,297.0935,0.00023312,3.425e-05,0.0,0 STARLINK-5279,1 54165U 22141J   23005.72731175  .00003425  00000-0  23312-3 0  9992,2 54165  53.2176 176.8897 0001807  63.0241 297.0935 15.08852942 10757,6917.840999999999,95.437,540.956,538.456,0.0
54165.0,STARLINK-5279,PAYLOAD,2023-01-06 10:56:34,15.08843203,0.0001734,53.2176,173.6187,60.4933,299.6232,-2.352e-05,-6.62e-06,0.0,0 STARLINK-5279,1 54165U 22141J   23006.45595153 -.00000662  00000-0 -23520-4 0  9991,2 54165  53.2176 173.6187 0001734  60.4933 299.6232 15.08843203 10862,6917.871,95.437,540.935,538.536,0.0
54165.0,STARLINK-5279,PAYLOAD,2023-01-06 12:31:57,15.08841329,0.0001742,53.2175,173.3213,60.0139,300.1026,-6.7205e-05,-1.358e-05,0.0,0 STARLINK-5279,1 54165U 22141J   23006.52219185 -.00001358  00000-0 -67205-4 0  9998,2 54165  53.2175 173.3213 0001742  60.0139 300.1026 15.08841329 10878,6917.876,95.437,540.946,538.536,0.0
54165.0,STARLINK-5279,PAYLOAD,2023-01-07 04:25:48,15.08848243,0.0001759,53.218,170.3477,59.9609,300.1558,0.00013608,1.879e-05,0.0,0 STARLINK-5279,1 54165U 22141J   23007.18458950  .00001879  00000-0  13608-3 0  9999,2 54165  53.2180 170.3477 0001759  59.9609 300.1558 15.08848243 10973,6917.855,95.437,540.937,538.503,0.0
54165.0,STARLINK-5279,PAYLOAD,2023-01-07 13:58:07,15.08838119,0.0001758,53.2179,168.5632,61.7124,298.4046,-2.5512e-05,-6.94e-06,0.0,0 STARLINK-5279,1 54165U 22141J   23007.58203322 -.00000694  00000-0 -25512-4 0  9998,2 54165  53.2179 168.5632 0001758  61.7124 298.4046 15.08838119 11035,6917.886,95.438,540.967,538.535,0.0
54165.0,STARLINK-5279,PAYLOAD,2023-01-07 20:19:40,15.08838964,0.0001665,53.2181,167.3741,66.4541,293.6626,-4.5093e-05,-1.006e-05,0.0,0 STARLINK-5279,1 54165U 22141J   23007.84699363 -.00001006  00000-0 -45093-4 0  9995,2 54165  53.2181 167.3741 0001665  66.4541 293.6626 15.08838964 11071,6917.884,95.438,540.9,538.597,0.0
54165.0,STARLINK-5279,PAYLOAD,2023-01-09 10:28:55,15.08837944,0.0001822,53.2182,160.2395,51.3005,308.8149,0.00014191,1.971e-05,0.0,0 STARLINK-5279,1 54165U 22141J   23009.43675805  .00001971  00000-0  14191-3 0  9990,2 54165  53.2182 160.2395 0001822  51.3005 308.8149 15.08837944 11315,6917.887,95.438,541.012,538.491,0.0
54165.0,STARLINK-5279,PAYLOAD,2023-01-10 11:55:06,15.08828181,0.0001544,53.2172,155.4819,39.7762,320.3343,-0.00024092,-4.119e-05,0.0,0 STARLINK-5279,1 54165U 22141J   23010.49660435 -.00004119  00000-0 -24092-3 0  9991,2 54165  53.2172 155.4819 0001544  39.7762 320.3343 15.08828181 11477,6917.917,95.438,540.85,538.7130000000002,0.0
54165.0,STARLINK-5279,PAYLOAD,2023-01-10 13:30:29,15.0883949,0.0001530999999999,53.2169,155.1841,48.8396,311.2728,-0.00042685,-7.075e-05,0.0,0 STARLINK-5279,1 54165U 22141J   23010.56284139 -.00007075  00000-0 -42685-3 0  9994,2 54165  53.2169 155.1841 0001531  48.8396 311.2728 15.08839490 11487,6917.882,95.438,540.806,538.688,0.0
54165.0,STARLINK-5279,PAYLOAD,2023-01-11 08:35:06,15.08840041,0.0001871,53.2181,151.6175,56.9596,303.1576,5.2627e-05,5.5e-06,0.0,0 STARLINK-5279,1 54165U 22141J   23011.35771955  .00000550  00000-0  52627-4 0  9996,2 54165  53.2181 151.6175 0001871  56.9596 303.1576 15.08840041 11600,6917.88,95.438,541.04,538.451,0.0
54165.0,STARLINK-5279,PAYLOAD,2023-01-11 13:21:15,15.08850414,0.0002053,53.2181,150.7264,55.5935,304.5251,0.00022211,3.249e-05,0.0,0 STARLINK-5279,1 54165U 22141J   23011.55643490  .00003249  00000-0  22211-3 0  9993,2 54165  53.2181 150.7264 0002053  55.5935 304.5251 15.08850414 11637,6917.849,95.437,541.134,538.293,0.0
54165.0,STARLINK-5279,PAYLOAD,2023-01-11 18:07:25,15.08851822,0.0002137,53.217,149.8336,46.1114,314.0054,0.00023757,3.496e-05,0.0,0 STARLINK-5279,1 54165U 22141J   23011.75515440  .00003496  00000-0  23757-3 0  9998,2 54165  53.2170 149.8336 0002137  46.1114 314.0054 15.08851822 11666,6917.844,95.437,541.188,538.231,0.0
54165.0,STARLINK-5279,PAYLOAD,2023-01-12 13:12:02,15.08852131,0.0002054,53.2176,146.2658,53.8067,306.3115,0.00022913,3.362e-05,0.0,0 STARLINK-5279,1 54165U 22141J   23012.55003115  .00003362  00000-0  22913-3 0  9993,2 54165  53.2176 146.2658 0002054  53.8067 306.3115 15.08852131 11789,6917.843000000002,95.437,541.129,538.2869999999998,0.0
54165.0,STARLINK-5279,PAYLOAD,2023-01-13 01:55:07,15.08847025,0.0002078,53.2178,143.8868,54.5391,305.5794,-2.273e-05,-6.5e-06,0.0,0 STARLINK-5279,1 54165U 22141J   23013.07995301 -.00000650  00000-0 -22730-4 0  9995,2 54165  53.2178 143.8868 0002078  54.5391 305.5794 15.08847025 11860,6917.859,95.437,541.161,538.286,0.0
54165.0,STARLINK-5279,PAYLOAD,2023-01-13 08:16:41,15.08820157,0.0002025,53.2178,142.6978,57.2822,302.8366,-0.0003843,-6.396e-05,0.0,0 STARLINK-5279,1 54165U 22141J   23013.34492684 -.00006396  00000-0 -38430-3 0  9997,2 54165  53.2178 142.6978 0002025  57.2822 302.8366 15.08820157 11907,6917.941,95.439,541.207,538.405,0.0
54165.0,STARLINK-5279,PAYLOAD,2023-01-13 14:38:14,15.08818937,0.0001664,53.2166,141.5076,51.2492,308.8649,-0.00037622,-6.267e-05,0.0,0 STARLINK-5279,1 54165U 22141J   23013.60988802 -.00006267  00000-0 -37622-3 0  9997,2 54165  53.2166 141.5076 0001664  51.2492 308.8649 15.08818937 11943,6917.945,95.439,540.961,538.659,0.0
54165.0,STARLINK-5279,PAYLOAD,2023-01-14 01:45:56,15.08827201,0.0001982,53.2152,139.4236,65.4013,294.7186,-9.8263e-05,-1.851e-05,0.0,0 STARLINK-5279,1 54165U 22141J   23014.07357205 -.00001851  00000-0 -98263-4 0  9999,2 54165  53.2152 139.4236 0001982  65.4013 294.7186 15.08827201 12013,6917.92,95.438,541.156,538.413,0.0
54165.0,STARLINK-5279,PAYLOAD,2023-01-14 17:39:47,15.08837971,0.0002102,53.2134,136.4516,51.749,308.3691,0.00026749,3.971e-05,0.0,0 STARLINK-5279,1 54165U 22141J   23014.73597213  .00003971  00000-0  26749-3 0  9999,2 54165  53.2134 136.4516 0002102  51.7490 308.3691 15.08837971 12112,6917.887,95.438,541.206,538.297,0.0
54165.0,STARLINK-5279,PAYLOAD,2023-01-15 01:36:44,15.08822079,0.000231,53.2127,134.9643,72.6104,287.5141,0.00032841,4.94e-05,0.0,0 STARLINK-5279,1 54165U 22141J   23015.06718406  .00004940  00000-0  32841-3 0  9992,2 54165  53.2127 134.9643 0002310  72.6104 287.5141 15.08822079 12169,6917.935,95.439,541.398,538.202,0.0
